IRIDIUM 57              
1 25273U 98019B   24197.80027786  .00000558  00000+0  18816-3 0  9991
2 25273  86.3957 286.1362 0002229  94.6323 265.5127 14.35282266376529
IRIDIUM 63              
1 25286U 98021B   24198.16142013  .00000493  00000+0  16360-3 0  9999
2 25286  86.3978 222.8859 0002107  90.8690 269.2748 14.35831273375880
IRIDIUM 69              
1 25319U 98026A   24197.86670171  .00000691  00000+0  21286-3 0  9991
2 25319  86.3962 237.3080 0004354  72.5422 287.6252 14.40079608374642
IRIDIUM 71              
1 25320U 98026B   24198.13843806  .00000601  00000+0  18331-3 0  9999
2 25320  86.3963 231.9488 0004357 103.3147 256.8538 14.40387571375453
IRIDIUM 73              
1 25344U 98032C   24197.92841350  .00000966  00000+0  24118-3 0  9994
2 25344  86.4443 189.4449 0002890  82.5746 277.5788 14.50628024381793
IRIDIUM 82              
1 25467U 98051A   24197.68988168  .00023352  00000+0  11341-2 0  9990
2 25467  86.3735 272.2385 0127057 115.8217 245.6192 15.11385096372790
